{"fetched_at":"2026-04-05T12:57:33Z","count":17389,"tles":[{"name":"BEIDOU-2 IGSO-4 (C09)","line1":"1 37763U 11038A   26087.66258249 -.00000109  00000+0  00000+0 0  9993","line2":"2 37763  54.5871 166.4040 0156581 231.4212 120.2889  1.00260433 53838","category":"GPS"}]}